EUTELSAT QUANTUM        
1 49056U 21069B   26024.22647469  .00000141  00000+0  00000+0 0  9990
2 49056   0.0092  38.1884 0003276 265.7325 308.8437  1.00271473 16484
EUTELSAT KONNECT VHTS   
1 53765U 22110A   26023.00508652  .00000032  00000+0  00000+0 0  9994
2 53765   0.0559  99.7651 0003325 178.8927 208.2208  1.00275065  5383
EUTELSAT HOTBIRD 13F    
1 54048U 22134A   26023.63377998  .00000102  00000+0  00000+0 0  9999
2 54048   0.0564 279.5857 0002143  82.8592   1.6563  1.00270479 11929
EUTELSAT HOTBIRD 13G    
1 54225U 22146A   26023.38169999  .00000102  00000+0  00000+0 0  9991
2 54225   0.0546 246.4830 0001991 295.9821  90.6438  1.00269833  6017
EUTELSAT 10B            
1 54259U 22157A   26024.29034838  .00000083  00000+0  00000+0 0  9992
2 54259   0.0575  96.7108 0000804  48.4676  92.9583  1.00267837 11587
EUTELSAT 36D            
1 59346U 24059A   26023.81850112  .00000171  00000+0  00000+0 0  9993
2 59346   0.0185  75.2362 0000568 267.0930 111.3247  1.00268871  6709
